CCSDS_OMM_VERS = 2.0
CREATION_DATE  = 
ORIGINATOR     = 

OBJECT_NAME    = SL-14 R/B
OBJECT_ID      = 1991-042B
CENTER_NAME    = EARTH
REF_FRAME      = TEME
TIME_SYSTEM    = UTC
MEAN_ELEMENT_THEORY = SGP/SGP4

EPOCH          = 2026-02-24T17:24:17.299872
MEAN_MOTION    = 14.81814415
ECCENTRICITY   = .0015576
INCLINATION    = 82.4900
RA_OF_ASC_NODE = 232.3412
ARG_OF_PERICENTER = 285.1575
MEAN_ANOMALY   = 74.7916

EPHEMERIS_TYPE = 0
CLASSIFICATION_TYPE = U
NORAD_CAT_ID   = 21423
ELEMENT_SET_NO = 999
REV_AT_EPOCH   = 85115
BSTAR          = .53223937E-4
MEAN_MOTION_DOT = .444E-5
MEAN_MOTION_DDOT = 0

CCSDS_OMM_VERS = 2.0
CREATION_DATE  = 
ORIGINATOR     = 

OBJECT_NAME    = ERS-1
OBJECT_ID      = 1991-050A
CENTER_NAME    = EARTH
REF_FRAME      = TEME
TIME_SYSTEM    = UTC
MEAN_ELEMENT_THEORY = SGP/SGP4

EPOCH          = 2026-02-24T23:26:32.946144
MEAN_MOTION    = 14.39437792
ECCENTRICITY   = .00310367
INCLINATION    = 98.7890
RA_OF_ASC_NODE = 73.8917
ARG_OF_PERICENTER = 238.9484
MEAN_ANOMALY   = 120.8656

EPHEMERIS_TYPE = 0
CLASSIFICATION_TYPE = U
NORAD_CAT_ID   = 21574
ELEMENT_SET_NO = 999
REV_AT_EPOCH   = 81390
BSTAR          = .1059971E-3
MEAN_MOTION_DOT = .285E-5
MEAN_MOTION_DDOT = 0

CCSDS_OMM_VERS = 2.0
CREATION_DATE  = 
ORIGINATOR     = 

OBJECT_NAME    = ARIANE 40 R/B
OBJECT_ID      = 1991-050F
CENTER_NAME    = EARTH
REF_FRAME      = TEME
TIME_SYSTEM    = UTC
MEAN_ELEMENT_THEORY = SGP/SGP4

EPOCH          = 2026-02-24T03:45:18.173376
MEAN_MOTION    = 14.42882431
ECCENTRICITY   = .00043306
INCLINATION    = 98.2043
RA_OF_ASC_NODE = 107.8990
ARG_OF_PERICENTER = 110.4443
MEAN_ANOMALY   = 249.7213

EPHEMERIS_TYPE = 0
CLASSIFICATION_TYPE = U
NORAD_CAT_ID   = 21610
ELEMENT_SET_NO = 999
REV_AT_EPOCH   = 81704
BSTAR          = .88632621E-4
MEAN_MOTION_DOT = .254E-5
MEAN_MOTION_DDOT = 0

CCSDS_OMM_VERS = 2.0
CREATION_DATE  = 
ORIGINATOR     = 

OBJECT_NAME    = INTERCOSMOS 25
OBJECT_ID      = 1991-086A
CENTER_NAME    = EARTH
REF_FRAME      = TEME
TIME_SYSTEM    = UTC
MEAN_ELEMENT_THEORY = SGP/SGP4

EPOCH          = 2026-02-24T04:49:04.606464
MEAN_MOTION    = 12.11956560
ECCENTRICITY   = .1487093
INCLINATION    = 82.6073
RA_OF_ASC_NODE = 318.1598
ARG_OF_PERICENTER = 145.9899
MEAN_ANOMALY   = 224.6211

EPHEMERIS_TYPE = 0
CLASSIFICATION_TYPE = U
NORAD_CAT_ID   = 21819
ELEMENT_SET_NO = 999
REV_AT_EPOCH   = 49505
BSTAR          = .25626E-3
MEAN_MOTION_DOT = .1337E-4
MEAN_MOTION_DDOT = 0

CCSDS_OMM_VERS = 2.0
CREATION_DATE  = 
ORIGINATOR     = 

OBJECT_NAME    = SL-8 R/B
OBJECT_ID      = 1992-008B
CENTER_NAME    = EARTH
REF_FRAME      = TEME
TIME_SYSTEM    = UTC
MEAN_ELEMENT_THEORY = SGP/SGP4

EPOCH          = 2026-02-24T14:57:01.680768
MEAN_MOTION    = 13.75969914
ECCENTRICITY   = .0034853
INCLINATION    = 82.9236
RA_OF_ASC_NODE = 277.5005
ARG_OF_PERICENTER = 169.1646
MEAN_ANOMALY   = 203.4016

EPHEMERIS_TYPE = 0
CLASSIFICATION_TYPE = U
NORAD_CAT_ID   = 21876
ELEMENT_SET_NO = 999
REV_AT_EPOCH   = 70762
BSTAR          = -.56969E-5
MEAN_MOTION_DOT = .1E-6
MEAN_MOTION_DDOT = 0

CCSDS_OMM_VERS = 2.0
CREATION_DATE  = 
ORIGINATOR     = 

OBJECT_NAME    = SL-8 R/B
OBJECT_ID      = 1992-020B
CENTER_NAME    = EARTH
REF_FRAME      = TEME
TIME_SYSTEM    = UTC
MEAN_ELEMENT_THEORY = SGP/SGP4

EPOCH          = 2026-02-24T18:22:13.527840
MEAN_MOTION    = 13.75547832
ECCENTRICITY   = .00282591
INCLINATION    = 82.9344
RA_OF_ASC_NODE = 163.3543
ARG_OF_PERICENTER = 336.1980
MEAN_ANOMALY   = 187.8825

EPHEMERIS_TYPE = 0
CLASSIFICATION_TYPE = U
NORAD_CAT_ID   = 21938
ELEMENT_SET_NO = 999
REV_AT_EPOCH   = 69935
BSTAR          = .7402057E-4
MEAN_MOTION_DOT = .86E-6
MEAN_MOTION_DDOT = 0

CCSDS_OMM_VERS = 2.0
CREATION_DATE  = 
ORIGINATOR     = 

OBJECT_NAME    = USA 81
OBJECT_ID      = 1992-023A
CENTER_NAME    = EARTH
REF_FRAME      = TEME
TIME_SYSTEM    = UTC
MEAN_ELEMENT_THEORY = SGP/SGP4

EPOCH          = 2026-02-24T07:34:58.651968
MEAN_MOTION    = 14.32362948
ECCENTRICITY   = .0002736
INCLINATION    = 85.0109
RA_OF_ASC_NODE = 139.1542
ARG_OF_PERICENTER = 89.3084
MEAN_ANOMALY   = 270.8422

EPHEMERIS_TYPE = 0
CLASSIFICATION_TYPE = U
NORAD_CAT_ID   = 21949
ELEMENT_SET_NO = 999
REV_AT_EPOCH   = 9287
BSTAR          = .59916E-4
MEAN_MOTION_DOT = .182E-5
MEAN_MOTION_DDOT = 0

CCSDS_OMM_VERS = 2.0
CREATION_DATE  = 
ORIGINATOR     = 

OBJECT_NAME    = COSMOS 2219
OBJECT_ID      = 1992-076A
CENTER_NAME    = EARTH
REF_FRAME      = TEME
TIME_SYSTEM    = UTC
MEAN_ELEMENT_THEORY = SGP/SGP4

EPOCH          = 2026-02-24T22:18:37.427904
MEAN_MOTION    = 14.14083698
ECCENTRICITY   = .00195942
INCLINATION    = 71.0598
RA_OF_ASC_NODE = 44.7419
ARG_OF_PERICENTER = 224.0865
MEAN_ANOMALY   = 135.8696

EPHEMERIS_TYPE = 0
CLASSIFICATION_TYPE = U
NORAD_CAT_ID   = 22219
ELEMENT_SET_NO = 999
REV_AT_EPOCH   = 71657
BSTAR          = .2076016E-3
MEAN_MOTION_DOT = .349E-5
MEAN_MOTION_DDOT = 0

CCSDS_OMM_VERS = 2.0
CREATION_DATE  = 
ORIGINATOR     = 

OBJECT_NAME    = SL-16 R/B
OBJECT_ID      = 1992-076B
CENTER_NAME    = EARTH
REF_FRAME      = TEME
TIME_SYSTEM    = UTC
MEAN_ELEMENT_THEORY = SGP/SGP4

EPOCH          = 2026-02-24T11:50:41.718624
MEAN_MOTION    = 14.16856265
ECCENTRICITY   = .00109215
INCLINATION    = 70.9984
RA_OF_ASC_NODE = 216.1695
ARG_OF_PERICENTER = 120.6200
MEAN_ANOMALY   = 296.0036

EPHEMERIS_TYPE = 0
CLASSIFICATION_TYPE = U
NORAD_CAT_ID   = 22220
ELEMENT_SET_NO = 999
REV_AT_EPOCH   = 71996
BSTAR          = .15828215E-3
MEAN_MOTION_DOT = .27E-5
MEAN_MOTION_DDOT = 0

CCSDS_OMM_VERS = 2.0
CREATION_DATE  = 
ORIGINATOR     = 

OBJECT_NAME    = COSMOS 2221
OBJECT_ID      = 1992-080A
CENTER_NAME    = EARTH
REF_FRAME      = TEME
TIME_SYSTEM    = UTC
MEAN_ELEMENT_THEORY = SGP/SGP4

EPOCH          = 2026-02-24T14:18:09.508032
MEAN_MOTION    = 14.96144732
ECCENTRICITY   = .001301
INCLINATION    = 82.5030
RA_OF_ASC_NODE = 291.6240
ARG_OF_PERICENTER = 233.8811
MEAN_ANOMALY   = 126.1207

EPHEMERIS_TYPE = 0
CLASSIFICATION_TYPE = U
NORAD_CAT_ID   = 22236
ELEMENT_SET_NO = 999
REV_AT_EPOCH   = 77883
BSTAR          = .15193E-3
MEAN_MOTION_DOT = .1738E-4
MEAN_MOTION_DDOT = 0

CCSDS_OMM_VERS = 2.0
CREATION_DATE  = 
ORIGINATOR     = 

OBJECT_NAME    = SL-16 R/B
OBJECT_ID      = 1992-093B
CENTER_NAME    = EARTH
REF_FRAME      = TEME
TIME_SYSTEM    = UTC
MEAN_ELEMENT_THEORY = SGP/SGP4

EPOCH          = 2026-02-24T09:11:18.662496
MEAN_MOTION    = 14.15448741
ECCENTRICITY   = .00059246
INCLINATION    = 71.0225
RA_OF_ASC_NODE = 32.1990
ARG_OF_PERICENTER = 308.0439
MEAN_ANOMALY   = 52.0149

EPHEMERIS_TYPE = 0
CLASSIFICATION_TYPE = U
NORAD_CAT_ID   = 22285
ELEMENT_SET_NO = 999
REV_AT_EPOCH   = 71127
BSTAR          = .11168993E-3
MEAN_MOTION_DOT = .171E-5
MEAN_MOTION_DDOT = 0

CCSDS_OMM_VERS = 2.0
CREATION_DATE  = 
ORIGINATOR     = 

OBJECT_NAME    = COSMOS 2228
OBJECT_ID      = 1992-094A
CENTER_NAME    = EARTH
REF_FRAME      = TEME
TIME_SYSTEM    = UTC
MEAN_ELEMENT_THEORY = SGP/SGP4

EPOCH          = 2026-02-24T22:55:20.536320
MEAN_MOTION    = 14.97119769
ECCENTRICITY   = .00176993
INCLINATION    = 82.5148
RA_OF_ASC_NODE = 249.5057
ARG_OF_PERICENTER = 349.5052
MEAN_ANOMALY   = 10.5798

EPHEMERIS_TYPE = 0
CLASSIFICATION_TYPE = U
NORAD_CAT_ID   = 22286
ELEMENT_SET_NO = 999
REV_AT_EPOCH   = 77415
BSTAR          = .17664447E-3
MEAN_MOTION_DOT = .207E-4
MEAN_MOTION_DDOT = 0

